CANX-4                  
1 40055U 14034C   24304.41242250  .00005265  00000+0  71892-3 0  9996
2 40055  98.3819 144.8199 0014294 116.4183 243.8496 14.78992837556532
CANX-5                  
1 40056U 14034D   24304.14606857  .00005311  00000+0  72505-3 0  9998
2 40056  98.3823 144.5527 0014289 117.2968 242.9699 14.79000470547308
UKUBE-1                 
1 40074U 14037F   24304.54700411  .00028465  00000+0  23998-2 0  9992
2 40074  98.3495 243.2033 0004674  13.4469 346.6875 14.98119957559013
BRITE-PL2 (HEWELIUSZ)   
1 40119U 14049B   24304.24221024  .00010019  00000+0  10317-2 0  9997
2 40119  97.8874  43.4508 0014067 280.1793  79.7838 14.90400333552687
AEROCUBE 5C             
1 40965U 15058B   24304.40787101  .00016630  00000+0  14134-2 0  9994
2 40965  64.7690 305.9041 0190042 267.7679  90.1660 14.85020062277107
AEROCUBE 7              
1 40966U 15058C   24304.36582130  .00018392  00000+0  14918-2 0  9992
2 40966  64.7658 298.4019 0183944 267.4410  90.5632 14.87412862277193
FOX-1A (AO-85)          
1 40967U 15058D   24304.45497605  .00017088  00000+0  14834-2 0  9993
2 40967  64.7772 320.1274 0188241 263.5148  94.4499 14.84462912 25055
SINOD-D 1               
1 40968U 15058E   24304.35659208  .00020956  00000+0  17271-2 0  9998
2 40968  64.7769 311.7452 0181324 262.5917  95.4558 14.87101200 27898
SNAP-3 ALICE            
1 40970U 15058G   24304.23088906  .00055384  00000+0  31670-2 0  9991
2 40970  64.7681 260.1672 0142515 260.7874  97.7101 15.04077366 26035
LMRST-SAT               
1 40971U 15058H   24304.43599122  .00016795  00000+0  14549-2 0  9990
2 40971  64.7770 315.7462 0189645 264.9002  93.0438 14.84374576 25056
SNAP-3 EDDIE            
1 40972U 15058J   24304.60480961  .00057136  00000+0  32188-2 0  9993
2 40972  64.7657 252.0954 0142487 261.5300  96.9648 15.04578964 28190
PROPCUBE 3              
1 40973U 15058K   24304.35056056  .00018299  00000+0  15112-2 0  9995
2 40973  64.7702 302.4723 0185670 266.3420  91.6442 14.86554118 26100
BISONSAT                
1 40974U 15058L   24304.31246722  .00040324  00000+0  27083-2 0  9997
2 40974  64.7655 271.4627 0161089 264.1567  94.1165 14.96534529 25948
SNAP-3 JIMI             
1 40975U 15058M   24304.25014864  .00025507  00000+0  19347-2 0  9991
2 40975  64.7678 288.5223 0175339 265.4255  92.6811 14.90722003 25138
PROPCUBE 1 (FLORA)      
1 40976U 15058N   24304.33608948  .00015118  00000+0  13634-2 0  9993
2 40976  64.7770 332.2429 0188446 266.2585  91.6959 14.83103950 27821
SINOD-D 3               
1 40977U 15058P   24304.05467513  .00019854  00000+0  16994-2 0  9997
2 40977  64.7752 324.9619 0181500 265.5749  92.4606 14.85728517 26044
HORYU-4                 
1 41340U 16012D   24304.02852326  .00041045  00000+0  16876-2 0  9996
2 41340  31.0010 173.1015 0008947 279.7133  80.2498 15.22939554478675
RAVAN                   
1 41849U 16067B   24304.45921526  .00038594  00000+0  18199-2 0  9991
2 41849  98.0619 130.6077 0010954 289.7810  70.2242 15.19322728436481
CELTEE 1                
1 41850U 16067C   24303.93851386  .00018347  00000+0  11400-2 0  9993
2 41850  98.1073 120.7404 0002001  94.5022 265.6434 15.09721719435735
OPTICUBE 04             
1 41851U 16067D   24304.45084020  .00010225  00000+0  73050-3 0  9992
2 41851  98.0840 115.3289 0016943 325.9034  34.1101 15.04586839435560
AEROCUBE 8D             
1 41852U 16067E   24304.06131316  .00023682  00000+0  13965-2 0  9990
2 41852  98.1118 121.0278 0005001  22.6654 337.4794 15.11559318435741
AEROCUBE 8C             
1 41853U 16067F   24304.01094734  .00023642  00000+0  13938-2 0  9994
2 41853  98.0947 119.2274 0006444 309.7479  50.3182 15.11561748435722
PROMETHEUS 2-1          
1 41854U 16067G   24304.25214512  .00063692  00000+0  24639-2 0  9998
2 41854  98.0970 129.4647 0010138 317.3174  42.7274 15.25918772436263
PROMETHEUS 2-3          
1 41855U 16067H   24304.25332441  .00061248  00000+0  23772-2 0  9993
2 41855  98.0906 128.8241 0008791 328.3489  31.7217 15.25832515436264
CORVUS BC2              
1 42846U 17042X   24304.46601629  .00013375  00000+0  10823-2 0  9999
2 42846  97.3772 122.2443 0008184 336.9543  23.1313 14.99844816397706
CORVUS BC1              
1 42847U 17042Y   24304.01275360  .00012389  00000+0  10000-2 0  9991
2 42847  97.3724 122.2358 0008516 321.6561  38.4057 14.99956509397650
MIRATA                  
1 43015U 17073C   24304.24871535  .00073362  00000+0  26686-2 0  9999
2 43015  97.5708 188.1745 0142722 155.1415 205.6785 15.18836938376747
MAKERSAT 0              
1 43016U 17073D   24304.62278650  .00036533  00000+0  18364-2 0  9994
2 43016  97.5479 180.1585 0175514 182.5394 177.4960 15.04649585376232
SIRION PATHFINDER-2     
1 43759U 18099B   24304.42115654  .00018592  00000+0  12903-2 0  9997
2 43759  97.5135 356.8715 0010505 179.0592 181.0656 15.05578702322834
CORVUS BC4              
1 43767U 18099K   24304.39481594  .00015907  00000+0  11362-2 0  9996
2 43767  97.4965 353.6125 0008201 237.9123 122.1308 15.04551352322704
MOVE-II                 
1 43780U 18099Y   24304.13285058  .00081887  00000+0  30091-2 0  9990
2 43780  97.5035   6.6767 0004833 217.1204 142.9701 15.27570907323432
SPACEBEE-7              
1 43816U 18099BL  24304.43011606  .00054928  00000+0  25975-2 0  9990
2 43816  97.5317   6.9810 0008808 172.6736 187.4629 15.19144665322888
SPACEBEE-6              
1 43818U 18099BN  24304.44809324  .00213933  00000+0  42636-2 0  9991
2 43818  97.5218  15.7137 0005570 180.5201 179.6043 15.46064298323616
SHIELDS 1               
1 43850U 18104B   24304.41578662  .00044768  00000+0  95055-3 0  9991
2 43850  85.0248 190.9234 0006433 292.2820  67.7752 15.44824031326982
SONATE                  
1 44400U 19038Q   24304.28112552  .00080508  00000+0  16897-2 0  9995
2 44400  97.7146 305.3848 0012459 357.6432   2.4755 15.45000131294851
LUCKY-7                 
1 44406U 19038W   24303.96102458  .00258562  00000+0  20446-2 0  9991
2 44406  97.6955 312.1746 0004706 349.1476  10.9683 15.70565948295290
DUCHIFAT-3              
1 44854U 19089C   24304.39246700  .00062301  00000+0  24400-2 0  9999
2 44854  36.9541 303.7618 0010065 173.8130 186.2745 15.24713608268857
M2 PATHFINDER           
1 45727U 20037E   24303.98498060  .00012613  00000+0  10405-2 0  9997
2 45727  97.7826 119.9407 0012594  41.3989 318.8186 14.99090797236126
NETSAT-4                
1 46504U 20068U   24304.32861084  .00034379  00000+0  15788-2 0  9996
2 46504  97.8204 265.6668 0006238 252.7623 107.2929 15.20298980224660
NETSAT-3                
1 46505U 20068V   24304.36600209  .00032210  00000+0  15069-2 0  9995
2 46505  97.8191 265.0436 0005651 267.2058  92.8529 15.19676686224659
NETSAT-1                
1 46506U 20068W   24304.33493672  .00024794  00000+0  12537-2 0  9992
2 46506  97.8213 264.0864 0005114 284.8410  75.2255 15.17028480224584
NETSAT-2                
1 46507U 20068X   24304.34920860  .00031463  00000+0  14501-2 0  9992
2 46507  97.8190 265.2818 0003986 295.2292  64.8528 15.20205292224613
WILDTRACKCUBE-SIMBA     
1 47941U 21022K   24304.58634636  .00052348  00000+0  18585-2 0  9996
2 47941  97.4424 200.5969 0015234  36.9453 323.2833 15.28752319199098
GRBALPHA                
1 47959U 21022AD  24304.56590494  .00083859  00000+0  22725-2 0  9998
2 47959  97.4418 203.6421 0012973  31.0529 329.1480 15.37249583198113
BEESAT-8                
1 48085U 21022AP  24304.00430359  .00152661  00000+0  27226-2 0  9990
2 48085  97.4682 208.6911 0010157  30.4530 329.7308 15.49473611198617
LEDSAT                  
1 49069U 21073D   24304.17647648  .00066594  00000+0  20134-2 0  9998
2 49069  97.4231  15.0237 0016460 162.8633 197.3169 15.33840999177079
ROBUSTA-1F (MTCUBE 2)   
1 53109U 22080E   24301.54092252 -.00000003  00000+0  00000+0 0  9991
2 53109  70.1158 146.1070 0008326  60.2568 299.8919  6.42584206 53661
SITRO-AIS 5 (KATYS)     
1 57176U 23091L   24304.38724003  .00027769  00000+0  15825-2 0  9994
2 57176  97.5955 355.6292 0016757  23.6851 336.5148 15.12640585 73907
SITRO-AIS 6 (CHIRKIN)   
1 57192U 23091AC  24304.56665893  .00025653  00000+0  14614-2 0  9998
2 57192  97.5954 355.8382 0016597  22.6156 337.5802 15.12673111 73937
SITRO-AIS 8 (ANOKHIN)   
1 57193U 23091AD  24304.56062259  .00028275  00000+0  15815-2 0  9993
2 57193  97.5952 355.9885 0016288  23.5277 336.6696 15.13313442 73947
SITRO-AIS 7 (FARTUSHNIY)
1 57194U 23091AE  24304.31229033  .00027697  00000+0  15811-2 0  9995
2 57194  97.5950 355.5530 0016495  24.1115 336.0884 15.12583652 73895
SITRO-AIS 10 (BURDAEV)  
1 57199U 23091AK  24304.55259432  .00032026  00000+0  16838-2 0  9994
2 57199  97.5969 357.3186 0011489  13.0742 347.0785 15.15546881 74022
SITRO-AIS 9 (SHCHUKIN)  
1 57201U 23091AM  24304.55337100  .00030338  00000+0  15979-2 0  9996
2 57201  97.5965 357.2863 0011412  13.2266 346.9263 15.15497225 74028
SITRO-AIS 12 (SMIRENNIY)
1 57204U 23091AQ  24304.56449292  .00028779  00000+0  15081-2 0  9996
2 57204  97.5971 357.4835 0011123   6.8998 353.2385 15.15692111 74036
SITRO-AIS 11 (SHEFFER)  
1 57208U 23091AU  24304.54066766  .00031540  00000+0  16457-2 0  9997
2 57208  97.5968 357.5010 0010977   7.9218 352.2185 15.15824484 74032
VERONIKA                
1 58261U 23174F   24304.46663190  .00074924  00000+0  24381-2 0  9992
2 58261  97.4470  18.7307 0010616 125.5310 234.6923 15.31528858 54332
ROBUSTA-1E (ENSO)       
1 58470U 23185J   24304.14576405  .00063066  00000+0  20326-2 0  9993
2 58470  97.4102  10.0218 0011094 157.5801 202.5927 15.31889292 50733
SITRO-AIS 29            
1 59052U 24039B   24304.54992015  .00090794  00000+0  22107-2 0  9999
2 59052  97.4047 266.5571 0018189  92.8327 267.5002 15.40423193 37334
